STARLINK-2044_new
1 17660C 21012AS  21326.13561625 -.00596334  00000-0 -45212-2 0  3264
2 17660  53.0521 154.9273 0007237 269.8707 350.8138 15.72247536    11
STARLINK-2044_old
1 27660C 21012AS  21325.12832631 -.00404149  00000-0 -29093-2 0  3250
2 27660  53.0501 159.9261 0007761 295.3878  18.3477 15.73268813    10
